[{"OBJECT_NAME":"STARLINK-32337","OBJECT_ID":"2024-191Y","EPOCH":"2026-03-09T06:34:07.916736","MEAN_MOTION":15.27556794,"ECCENTRICITY":0.00018418,"INCLINATION":43.003,"RA_OF_ASC_NODE":156.7747,"ARG_OF_PERICENTER":275.6221,"MEAN_ANOMALY":84.4421,"EPHEMERIS_TYPE":0,"CLASSIFICATION_TYPE":"U","NORAD_CAT_ID":61643,"ELEMENT_SET_NO":999,"REV_AT_EPOCH":7823,"BSTAR":-0.00014314032,"MEAN_MOTION_DOT":-4.196e-5,"MEAN_MOTION_DDOT":0},{"OBJECT_NAME":"TITAN 3C TRANSTAGE DEB","OBJECT_ID":"1965-082PT","EPOCH":"2026-03-09T13:23:41.116128","MEAN_MOTION":15.28908269,"ECCENTRICITY":0.00104371,"INCLINATION":32.0266,"RA_OF_ASC_NODE":255.1391,"ARG_OF_PERICENTER":172.8339,"MEAN_ANOMALY":187.2474,"EPHEMERIS_TYPE":0,"CLASSIFICATION_TYPE":"U","NORAD_CAT_ID":3462,"ELEMENT_SET_NO":999,"REV_AT_EPOCH":24824,"BSTAR":0.0004444037,"MEAN_MOTION_DOT":0.00012939,"MEAN_MOTION_DDOT":0}]
